{
    "links": {
        "self": "http://www.neowsapp.com/rest/v1/neo/3825101?api_key=iIulBulltgU6a56xZRHN4H3l9WmuAYTsLGpBGhQ2"
    },
    "id": "3825101",
    "neo_reference_id": "3825101",
    "name": "(2018 LD1)",
    "designation": "2018 LD1",
    "nasa_jpl_url": "http://ssd.jpl.nasa.gov/sbdb.cgi?sstr=3825101",
    "absolute_magnitude_h": 26.2,
    "estimated_diameter": {
        "kilometers": {
            "estimated_diameter_min": 0.0152951935,
            "estimated_diameter_max": 0.0342010925
        },
        "meters": {
            "estimated_diameter_min": 15.2951935344,
            "estimated_diameter_max": 34.201092472
        },
        "miles": {
            "estimated_diameter_min": 0.0095039897,
            "estimated_diameter_max": 0.021251567
        },
        "feet": {
            "estimated_diameter_min": 50.1810827555,
            "estimated_diameter_max": 112.2083122258
        }
    },
    "is_potentially_hazardous_asteroid": false,
    "close_approach_data": [
        {
            "close_approach_date": "2018-06-14",
            "close_approach_date_full": "2018-Jun-14 16:00",
            "epoch_date_close_approach": 1528992000000,
            "relative_velocity": {
                "kilometers_per_second": "10.9634022686",
                "kilometers_per_hour": "39468.2481670176",
                "miles_per_hour": "24524.0345346671"
            },
            "miss_distance": {
                "astronomical": "0.0040194257",
                "lunar": "1.5635565973",
                "kilometers": "601297.523343259",
                "miles": "373628.9556006142"
            },
            "orbiting_body": "Earth"
        },
        {
            "close_approach_date": "2018-06-14",
            "close_approach_date_full": "2018-Jun-14 21:36",
            "epoch_date_close_approach": 1529012160000,
            "relative_velocity": {
                "kilometers_per_second": "11.7210369844",
                "kilometers_per_hour": "42195.7331440006",
                "miles_per_hour": "26218.7876305041"
            },
            "miss_distance": {
                "astronomical": "0.0051234879",
                "lunar": "1.9930367931",
                "kilometers": "766462.876810773",
                "miles": "476257.9472757474"
            },
            "orbiting_body": "Moon"
        }
    ],
    "orbital_data": {
        "orbit_id": "9",
        "orbit_determination_date": "2019-07-18 07:28:23",
        "first_observation_date": "2018-06-05",
        "last_observation_date": "2018-06-13",
        "data_arc_in_days": 8,
        "observations_used": 49,
        "orbit_uncertainty": "7",
        "minimum_orbit_intersection": ".00235093",
        "jupiter_tisserand_invariant": "3.844",
        "epoch_osculation": "2459000.5",
        "eccentricity": ".5088936814605999",
        "semi_major_axis": "1.845896028270469",
        "inclination": ".2264045536485166",
        "ascending_node_longitude": "31.56764640205325",
        "orbital_period": "916.0291201373306",
        "perihelion_distance": ".9065312028504104",
        "perihelion_argument": "279.005336431851",
        "aphelion_distance": "2.785260853690528",
        "perihelion_time": "2459236.778426928542",
        "mean_anomaly": "267.1424348589234",
        "mean_motion": ".3930006067340185",
        "equinox": "J2000",
        "orbit_class": {
            "orbit_class_type": "APO",
            "orbit_class_description": "Near-Earth asteroid orbits which cross the Earth’s orbit similar to that of 1862 Apollo",
            "orbit_class_range": "a (semi-major axis) > 1.0 AU; q (perihelion) < 1.017 AU"
        }
    },
    "is_sentry_object": false
}